start=new Date('2021-12-21T00:00:00.000Z').valueOf();
sats=[{"ECCENTRICITY":"0.00019190","PERIAPSIS":"545.872","OBJECT_ID":"2020-073B","ELEMENT_SET_NO":"999","BSTAR":"0.00001911200000","GP_ID":"192112709","NORAD_CAT_ID":"46671","MEAN_MOTION_DOT":"0.00000003","MEAN_MOTION_DDOT":"0.0000000000000","OBJECT_NAME":"STARLINK-1715","LAUNCH_DATE":"2020-10-18","EPOCH":"2021-12-20T22:30:31.568832","APOAPSIS":"548.530","REF_FRAME":"TEME","ARG_OF_PERICENTER":"62.0275","TLE_LINE1":"1 46671U 20073B   21354.93786538  .00000003  00000-0  19112-4 0  9991","OBJECT_TYPE":"PAYLOAD","PERIOD":"95.592","RA_OF_ASC_NODE":"318.8354","RCS_SIZE":"LARGE","MEAN_MOTION":"15.06404212","MEAN_ANOMALY":"298.0908","TLE_LINE2":"2 46671  53.0554 318.8354 0001919  62.0275 298.0908 15.06404212 64980","COUNTRY_CODE":"US","TIME_SYSTEM":"UTC","CENTER_NAME":"EARTH","FILE":"3245895","DECAY_DATE":null,"CLASSIFICATION_TYPE":"U","SEMIMAJOR_AXIS":"6925.336","REV_AT_EPOCH":"6498","MEAN_ELEMENT_THEORY":"SGP4","INCLINATION":"53.0554","SITE":"AFETR","EPHEMERIS_TYPE":"0"},{"ECCENTRICITY":"0.00018220","PERIAPSIS":"545.928","ELEMENT_SET_NO":"999","OBJECT_ID":"2020-073C","NORAD_CAT_ID":"46672","GP_ID":"192112960","BSTAR":"0.00020234000000","MEAN_MOTION_DOT":"0.00002734","MEAN_MOTION_DDOT":"0.0000000000000","LAUNCH_DATE":"2020-10-18","OBJECT_NAME":"STARLINK-1716","EPOCH":"2021-12-20T21:52:44.206464","APOAPSIS":"548.451","REF_FRAME":"TEME","ARG_OF_PERICENTER":"65.6119","TLE_LINE1":"1 46672U 20073C   21354.91162276  .00002734  00000-0  20234-3 0  9996","OBJECT_TYPE":"PAYLOAD","PERIOD":"95.592","RA_OF_ASC_NODE":"313.9446","RCS_SIZE":"LARGE","MEAN_MOTION":"15.06407868","MEAN_ANOMALY":"294.5060","TLE_LINE2":"2 46672  53.0543 313.9446 0001822  65.6119 294.5060 15.06407868 65055","COUNTRY_CODE":"US","TIME_SYSTEM":"UTC","CENTER_NAME":"EARTH","FILE":"3245895","DECAY_DATE":null,"CLASSIFICATION_TYPE":"U","SEMIMAJOR_AXIS":"6925.324","REV_AT_EPOCH":"6505","MEAN_ELEMENT_THEORY":"SGP4","INCLINATION":"53.0543","SITE":"AFETR","EPHEMERIS_TYPE":"0"},{"COUNTRY_CODE":"US","TLE_LINE2":"2 46673  53.0550 329.0926 0001909  58.7625 301.3551 15.06408548 64839","CENTER_NAME":"EARTH","TIME_SYSTEM":"UTC","MEAN_MOTION":"15.06408548","MEAN_ANOMALY":"301.3551","REV_AT_EPOCH":"6483","INCLINATION":"53.0550","SITE":"AFETR","EPHEMERIS_TYPE":"0","MEAN_ELEMENT_THEORY":"SGP4","DECAY_DATE":null,"FILE":"3245895","SEMIMAJOR_AXIS":"6925.322","CLASSIFICATION_TYPE":"U","OBJECT_NAME":"STARLINK-1717","LAUNCH_DATE":"2020-10-18","EPOCH":"2021-12-20T21:09:34.731936","MEAN_MOTION_DOT":"0.00002812","MEAN_MOTION_DDOT":"0.0000000000000","APOAPSIS":"548.509","ELEMENT_SET_NO":"999","OBJECT_ID":"2020-073D","ECCENTRICITY":"0.00019090","PERIAPSIS":"545.865","GP_ID":"192111708","BSTAR":"0.00020753000000","NORAD_CAT_ID":"46673","PERIOD":"95.592","RA_OF_ASC_NODE":"329.0926","ARG_OF_PERICENTER":"58.7625","OBJECT_TYPE":"PAYLOAD","TLE_LINE1":"1 46673U 20073D   21354.88165199  .00002812  00000-0  20753-3 0  9993","RCS_SIZE":"LARGE","REF_FRAME":"TEME"},{"ECCENTRICITY":"0.00018850","PERIAPSIS":"545.902","OBJECT_ID":"2020-073E","ELEMENT_SET_NO":"999","BSTAR":"0.00004847900000","GP_ID":"192111958","NORAD_CAT_ID":"46674","MEAN_MOTION_DOT":"0.00000441","MEAN_MOTION_DDOT":"0.0000000000000","LAUNCH_DATE":"2020-10-18","OBJECT_NAME":"STARLINK-1718","EPOCH":"2021-12-20T20:54:21.623040","APOAPSIS":"548.513","REF_FRAME":"TEME","ARG_OF_PERICENTER":"59.1779","OBJECT_TYPE":"PAYLOAD","TLE_LINE1":"1 46674U 20073E   21354.87108360  .00000441  00000-0  48479-4 0  9992","PERIOD":"95.592","RA_OF_ASC_NODE":"314.1378","RCS_SIZE":"LARGE","MEAN_ANOMALY":"300.9395","MEAN_MOTION":"15.06402016","TLE_LINE2":"2 46674  53.0555 314.1378 0001885  59.1779 300.9395 15.06402016 65048","COUNTRY_CODE":"US","TIME_SYSTEM":"UTC","CENTER_NAME":"EARTH","FILE":"3245895","DECAY_DATE":null,"CLASSIFICATION_TYPE":"U","SEMIMAJOR_AXIS":"6925.342","REV_AT_EPOCH":"6504","MEAN_ELEMENT_THEORY":"SGP4","INCLINATION":"53.0555","EPHEMERIS_TYPE":"0","SITE":"AFETR"},{"REV_AT_EPOCH":"6504","INCLINATION":"53.0557","EPHEMERIS_TYPE":"0","SITE":"AFETR","MEAN_ELEMENT_THEORY":"SGP4","DECAY_DATE":null,"FILE":"3245895","SEMIMAJOR_AXIS":"6925.359","CLASSIFICATION_TYPE":"U","COUNTRY_CODE":"US","TLE_LINE2":"2 46675  53.0557 314.1576 0002239  54.5911 305.5287 15.06396581 65042","CENTER_NAME":"EARTH","TIME_SYSTEM":"UTC","MEAN_ANOMALY":"305.5287","MEAN_MOTION":"15.06396581","PERIOD":"95.592","RA_OF_ASC_NODE":"314.1576","ARG_OF_PERICENTER":"54.5911","TLE_LINE1":"1 46675U 20073F   21354.86740090  .00000504  00000-0  52735-4 0  9994","OBJECT_TYPE":"PAYLOAD","RCS_SIZE":"LARGE","REF_FRAME":"TEME","OBJECT_NAME":"STARLINK-1720","LAUNCH_DATE":"2020-10-18","EPOCH":"2021-12-20T20:49:03.437760","MEAN_MOTION_DOT":"0.00000504","MEAN_MOTION_DDOT":"0.0000000000000","APOAPSIS":"548.775","ELEMENT_SET_NO":"999","OBJECT_ID":"2020-073F","ECCENTRICITY":"0.00022390","PERIAPSIS":"545.673","GP_ID":"192113209","NORAD_CAT_ID":"46675","BSTAR":"0.00005273500000"},{"REF_FRAME":"TEME","OBJECT_TYPE":"PAYLOAD","TLE_LINE1":"1 46677U 20073H   21354.93005595  .00001833  00000-0  14193-3 0  9999","ARG_OF_PERICENTER":"60.9308","RA_OF_ASC_NODE":"313.8735","PERIOD":"95.592","RCS_SIZE":"LARGE","PERIAPSIS":"545.861","ECCENTRICITY":"0.00019170","OBJECT_ID":"2020-073H","ELEMENT_SET_NO":"999","NORAD_CAT_ID":"46677","GP_ID":"192113460","BSTAR":"0.00014193000000","MEAN_MOTION_DDOT":"0.0000000000000","MEAN_MOTION_DOT":"0.00001833","EPOCH":"2021-12-20T22:19:16.834080","OBJECT_NAME":"STARLINK-1766","LAUNCH_DATE":"2020-10-18","APOAPSIS":"548.516","FILE":"3245895","DECAY_DATE":null,"CLASSIFICATION_TYPE":"U","SEMIMAJOR_AXIS":"6925.323","REV_AT_EPOCH":"6505","MEAN_ELEMENT_THEORY":"SGP4","EPHEMERIS_TYPE":"0","SITE":"AFETR","INCLINATION":"53.0543","MEAN_MOTION":"15.06408303","MEAN_ANOMALY":"299.1873","TLE_LINE2":"2 46677  53.0543 313.8735 0001917  60.9308 299.1873 15.06408303 65051","COUNTRY_CODE":"US","TIME_SYSTEM":"UTC","CENTER_NAME":"EARTH"},{"TIME_SYSTEM":"UTC","CENTER_NAME":"EARTH","TLE_LINE2":"2 46679  53.0549 294.1260 0002103  53.1161 307.0020 15.06412864 65322","COUNTRY_CODE":"US","MEAN_ANOMALY":"307.0020","MEAN_MOTION":"15.06412864","MEAN_ELEMENT_THEORY":"SGP4","EPHEMERIS_TYPE":"0","SITE":"AFETR","INCLINATION":"53.0549","REV_AT_EPOCH":"6532","CLASSIFICATION_TYPE":"U","SEMIMAJOR_AXIS":"6925.309","FILE":"3245895","DECAY_DATE":null,"APOAPSIS":"548.631","MEAN_MOTION_DDOT":"0.0000000000000","MEAN_MOTION_DOT":"0.00004716","EPOCH":"2021-12-20T20:51:41.706144","LAUNCH_DATE":"2020-10-18","OBJECT_NAME":"STARLINK-1773","NORAD_CAT_ID":"46679","GP_ID":"192112208","BSTAR":"0.00033520000000","PERIAPSIS":"545.718","ECCENTRICITY":"0.00021030","OBJECT_ID":"2020-073K","ELEMENT_SET_NO":"999","RCS_SIZE":"LARGE","OBJECT_TYPE":"PAYLOAD","TLE_LINE1":"1 46679U 20073K   21354.86923271  .00004716  00000-0  33520-3 0  9991","ARG_OF_PERICENTER":"53.1161","RA_OF_ASC_NODE":"294.1260","PERIOD":"95.591","REF_FRAME":"TEME"},{"REV_AT_EPOCH":"6480","INCLINATION":"53.0543","SITE":"AFETR","EPHEMERIS_TYPE":"0","MEAN_ELEMENT_THEORY":"SGP4","DECAY_DATE":null,"FILE":"3245895","SEMIMAJOR_AXIS":"6925.369","CLASSIFICATION_TYPE":"U","COUNTRY_CODE":"US","TLE_LINE2":"2 46680  53.0543 330.0126 0001905  61.6084 298.5097 15.06393225 64805","CENTER_NAME":"EARTH","TIME_SYSTEM":"UTC","MEAN_ANOMALY":"298.5097","MEAN_MOTION":"15.06393225","PERIOD":"95.593","RA_OF_ASC_NODE":"330.0126","ARG_OF_PERICENTER":"61.6084","OBJECT_TYPE":"PAYLOAD","TLE_LINE1":"1 46680U 20073L   21354.67251462  .00008485  00000-0  58794-3 0  9995","RCS_SIZE":"LARGE","REF_FRAME":"TEME","LAUNCH_DATE":"2020-10-18","OBJECT_NAME":"STARLINK-1774","EPOCH":"2021-12-20T16:08:25.263168","MEAN_MOTION_DOT":"0.00008485","MEAN_MOTION_DDOT":"0.0000000000000","APOAPSIS":"548.554","ELEMENT_SET_NO":"999","OBJECT_ID":"2020-073L","ECCENTRICITY":"0.00019050","PERIAPSIS":"545.915","GP_ID":"192112458","NORAD_CAT_ID":"46680","BSTAR":"0.00058794000000"},{"TLE_LINE1":"1 46681U 20073M   21354.90839507  .00001021  00000-0  87451-4 0  9996","OBJECT_TYPE":"PAYLOAD","ARG_OF_PERICENTER":"50.9011","RA_OF_ASC_NODE":"328.9736","PERIOD":"95.592","RCS_SIZE":"LARGE","REF_FRAME":"TEME","MEAN_MOTION_DDOT":"0.0000000000000","MEAN_MOTION_DOT":"0.00001021","EPOCH":"2021-12-20T21:48:05.334048","OBJECT_NAME":"STARLINK-1775","LAUNCH_DATE":"2020-10-18","APOAPSIS":"548.537","PERIAPSIS":"545.869","ECCENTRICITY":"0.00019260","ELEMENT_SET_NO":"999","OBJECT_ID":"2020-073M","GP_ID":"192112710","NORAD_CAT_ID":"46681","BSTAR":"0.00008745100000","REV_AT_EPOCH":"6483","MEAN_ELEMENT_THEORY":"SGP4","EPHEMERIS_TYPE":"0","SITE":"AFETR","INCLINATION":"53.0550","FILE":"3245895","DECAY_DATE":null,"CLASSIFICATION_TYPE":"U","SEMIMAJOR_AXIS":"6925.338","TLE_LINE2":"2 46681  53.0550 328.9736 0001926  50.9011 309.2149 15.06403491 64839","COUNTRY_CODE":"US","TIME_SYSTEM":"UTC","CENTER_NAME":"EARTH","MEAN_MOTION":"15.06403491","MEAN_ANOMALY":"309.2149"},{"ELEMENT_SET_NO":"999","OBJECT_ID":"2020-073N","ECCENTRICITY":"0.00018340","PERIAPSIS":"545.923","BSTAR":"0.00006554800000","GP_ID":"192112961","NORAD_CAT_ID":"46682","LAUNCH_DATE":"2020-10-18","OBJECT_NAME":"STARLINK-1776","EPOCH":"2021-12-20T20:49:42.289248","MEAN_MOTION_DOT":"0.00000695","MEAN_MOTION_DDOT":"0.0000000000000","APOAPSIS":"548.463","REF_FRAME":"TEME","PERIOD":"95.592","RA_OF_ASC_NODE":"329.1437","ARG_OF_PERICENTER":"52.8476","TLE_LINE1":"1 46682U 20073N   21354.86785057  .00000695  00000-0  65548-4 0  9991","OBJECT_TYPE":"PAYLOAD","RCS_SIZE":"LARGE","MEAN_MOTION":"15.06406793","MEAN_ANOMALY":"307.2680","COUNTRY_CODE":"US","TLE_LINE2":"2 46682  53.0543 329.1437 0001834  52.8476 307.2680 15.06406793 64833","CENTER_NAME":"EARTH","TIME_SYSTEM":"UTC","DECAY_DATE":null,"FILE":"3245895","SEMIMAJOR_AXIS":"6925.328","CLASSIFICATION_TYPE":"U","REV_AT_EPOCH":"6483","INCLINATION":"53.0543","EPHEMERIS_TYPE":"0","SITE":"AFETR","MEAN_ELEMENT_THEORY":"SGP4"}];
